STARLINK-31545          
1 59400U 24064C   26068.00510506 -.00000982  00000+0 -26185-4 0  9999
2 59400  43.0054  59.8202 0000976 270.9816  89.0923 15.27573669109122
TRANSPORTER-13 OBJECT AH
1 63241U 25052AH  26068.64880921  .00014108  00000+0  55931-3 0  9999
2 63241  97.3962 323.1443 0008070 138.7508 221.4341 15.25468797 54753
